NORAD_CAT_ID,OBJECT_NAME,OBJECT_TYPE,EPOCH,MEAN_MOTION,ECCENTRICITY,INCLINATION,RA_OF_ASC_NODE,ARG_OF_PERICENTER,MEAN_ANOMALY,BSTAR,MEAN_MOTION_DOT,MEAN_MOTION_DDOT,TLE_LINE0,TLE_LINE1,TLE_LINE2,SEMIMAJOR_AXIS,PERIOD,APOGEE,PERIGEE,DECAYED
53403.0,STARLINK-4507,PAYLOAD,2023-05-05 15:39:02,15.07232672,0.0001493,53.2143,108.7222,89.4033,270.713,0.00065081,9.644e-05,0.0,0 STARLINK-4507,1 53403U 22097R   23125.65211639  .00009644  00000-0  65081-3 0  9997,2 53403  53.2143 108.7222 0001493  89.4033 270.7130 15.07232672 41652,6922.798,95.539,545.696,543.629,0.0
53403.0,STARLINK-4507,PAYLOAD,2023-05-05 23:36:29,15.07219899,0.000167,53.2152,107.2377,94.4163,265.7019,8.9152e-05,1.074e-05,0.0,0 STARLINK-4507,1 53403U 22097R   23125.98367387  .00001074  00000-0  89152-4 0  9990,2 53403  53.2152 107.2377 0001670  94.4163 265.7019 15.07219899 41212,6922.837,95.54,545.858,543.546,0.0
53403.0,STARLINK-4507,PAYLOAD,2023-05-06 15:31:22,15.0722064,0.0001669,53.2153,104.2688,95.1723,264.9459,0.00012657,1.644e-05,0.0,0 STARLINK-4507,1 53403U 22097R   23126.64678772  .00001644  00000-0  12657-3 0  9995,2 53403  53.2153 104.2688 0001669  95.1723 264.9459 15.07220640 41803,6922.835,95.54,545.855,543.544,0.0
53403.0,STARLINK-4507,PAYLOAD,2023-05-07 02:39:47,15.07211795,0.0001685,53.2156,102.1902,94.9487,265.1697,-7.6371e-05,-1.446e-05,0.0,0 STARLINK-4507,1 53403U 22097R   23127.11097083 -.00001446  00000-0 -76371-4 0  9994,2 53403  53.2156 102.1902 0001685  94.9487 265.1697 15.07211795 41385,6922.862,95.541,545.893,543.56,0.0
53403.0,STARLINK-4507,PAYLOAD,2023-05-07 05:50:46,15.07213377,0.0001694,53.2159,101.5965,94.3264,265.7921,-3.8136e-05,-8.64e-06,0.0,0 STARLINK-4507,1 53403U 22097R   23127.24359477 -.00000864  00000-0 -38136-4 0  9996,2 53403  53.2159 101.5965 0001694  94.3264 265.7921 15.07213377 41897,6922.857,95.541,545.895,543.549,0.0
53403.0,STARLINK-4507,PAYLOAD,2023-05-07 15:23:43,15.07211098,0.0001672,53.2166,99.8149,89.2864,270.8319,-6.5344e-06,-3.83e-06,0.0,0 STARLINK-4507,1 53403U 22097R   23127.64147067 -.00000383  00000-0 -65344-5 0  9998,2 53403  53.2166  99.8149 0001672  89.2864 270.8319 15.07211098 41956,6922.864,95.541,545.886,543.571,0.0
53403.0,STARLINK-4507,PAYLOAD,2023-05-08 04:07:38,15.07203953,0.0001507,53.2161,97.4391,96.4481,263.6682,-5.1385e-05,-1.065e-05,0.0,0 STARLINK-4507,1 53403U 22097R   23128.17196981 -.00001065  00000-0 -51385-4 0  9993,2 53403  53.2161  97.4391 0001507  96.4481 263.6682 15.07203953 41545,6922.886,95.541,545.794,543.707,0.0
53403.0,STARLINK-4507,PAYLOAD,2023-05-08 15:16:03,15.07197734,0.0001536,53.216,95.3606,96.1601,263.9565,0.000122,1.574e-05,0.0,0 STARLINK-4507,1 53403U 22097R   23128.63615304  .00001574  00000-0  12200-3 0  9994,2 53403  53.2160  95.3606 0001536  96.1601 263.9565 15.07197734 42108,6922.905,95.542,545.833,543.706,0.0
53403.0,STARLINK-4507,PAYLOAD,2023-05-09 03:59:57,15.07213333,0.0001455,53.2165,92.9841,95.0079,265.1079,2.7221e-05,1.31e-06,0.0,0 STARLINK-4507,1 53403U 22097R   23129.16663950  .00000131  00000-0  27221-4 0  9991,2 53403  53.2165  92.9841 0001455  95.0079 265.1079 15.07213333 41695,6922.857,95.541,545.729,543.715,0.0
53403.0,STARLINK-4507,PAYLOAD,2023-05-10 03:52:18,15.07190915,0.0001366,53.2164,88.532,90.9771,269.1377,0.00034033,4.899e-05,0.0,0 STARLINK-4507,1 53403U 22097R   23130.16132839  .00004899  00000-0  34033-3 0  9993,2 53403  53.2164  88.5320 0001366  90.9771 269.1377 15.07190915 42338,6922.926,95.542,545.736,543.845,0.0
53403.0,STARLINK-4507,PAYLOAD,2023-05-11 03:44:38,15.07214782,0.0001472,53.2171,84.076,89.1339,270.9821,9.8545e-05,1.217e-05,0.0,0 STARLINK-4507,1 53403U 22097R   23131.15599577  .00001217  00000-0  98545-4 0  9999,2 53403  53.2171  84.0760 0001472  89.1339 270.9821 15.07214782 42482,6922.852,95.54,545.737,543.698,0.0
53403.0,STARLINK-4507,PAYLOAD,2023-05-12 03:36:53,15.07254829,0.0001844,53.2175,79.6221,64.0373,296.0808,0.0003876,5.629e-05,0.0,0 STARLINK-4507,1 53403U 22097R   23132.15061702  .00005629  00000-0  38760-3 0  9997,2 53403  53.2175  79.6221 0001844  64.0373 296.0808 15.07254829 42144,6922.73,95.538,545.871,543.318,0.0
53403.0,STARLINK-4507,PAYLOAD,2023-05-12 09:58:30,15.07498627,0.0001867,53.2176,78.433,98.2126,261.9077,0.0024318,0.00037226,0.0,0 STARLINK-4507,1 53403U 22097R   23132.41562837  .00037226  00000-0  24318-2 0  9992,2 53403  53.2176  78.4330 0001867  98.2126 261.9077 15.07498627 42676,6921.983,95.522,545.141,542.556,0.0
53403.0,STARLINK-4507,PAYLOAD,2023-05-13 00:17:11,15.07899736,0.0001732,53.2183,75.7635,82.5464,277.5724,0.0053072,0.00083011,0.0,0 STARLINK-4507,1 53403U 22097R   23133.01194288  .00083011  00000-0  53072-2 0  9992,2 53403  53.2183  75.7635 0001732  82.5464 277.5724 15.07899736 42278,6920.756,95.497,543.82,541.422,0.0
53403.0,STARLINK-4507,PAYLOAD,2023-05-13 01:52:33,15.07968377,0.0001284,53.2175,75.4608,91.6697,268.4442,0.005786,0.00090795,0.0,0 STARLINK-4507,1 53403U 22097R   23133.07816876  .00090795  00000-0  57860-2 0  9998,2 53403  53.2175  75.4608 0001284  91.6697 268.4442 15.07968377 42282,6920.546,95.493,543.299,541.522,0.0
53403.0,STARLINK-4507,PAYLOAD,2023-05-13 11:24:57,15.08190246,0.0001644,53.2176,73.6771,80.1628,279.9549,0.0070178,0.00111175,0.0,0 STARLINK-4507,1 53403U 22097R   23133.47566214  .00111175  00000-0  70178-2 0  9993,2 53403  53.2176  73.6771 0001644  80.1628 279.9549 15.08190246 42346,6919.867,95.479,542.87,540.595,0.0
53403.0,STARLINK-4507,PAYLOAD,2023-05-13 22:00:00,15.08850169,0.0001479,53.2163,71.7005,94.7053,140.7116,-0.0014288,-0.00022962,0.0,0 STARLINK-4507,1 53403U 22097R   23133.91667824 -.00022962  00000-0 -14288-2 0  9998,2 53403  53.2163  71.7005 0001479  94.7053 140.7116 15.08850169  1303,6917.849,95.437,540.737,538.691,0.0
53403.0,STARLINK-4507,PAYLOAD,2023-05-14 08:00:01,15.0881401,0.0001324,53.2158,69.831,79.0963,260.8703,0.0021709,0.00034406,0.0,0 STARLINK-4507,1 53403U 22097R   23134.33335648  .00034406  00000-0  21709-2 0  9991,2 53403  53.2158  69.8310 0001324  79.0963 260.8703 15.08814010 42473,6917.96,95.439,540.741,538.909,0.0
53403.0,STARLINK-4507,PAYLOAD,2023-05-14 14:00:01,15.08825445,0.0001298,53.2161,68.7073,87.3254,171.2635,0.0015821,0.00024971,0.0,0 STARLINK-4507,1 53403U 22097R   23134.58334491  .00024971  00000-0  15821-2 0  9997,2 53403  53.2161  68.7073 0001298  87.3254 171.2635 15.08825445  1306,6917.925,95.438,540.688,538.892,0.0
53403.0,STARLINK-4507,PAYLOAD,2023-05-14 22:00:00,15.08866027,0.0001376,53.2162,67.2112,91.5292,178.6378,-0.0014153,-0.00022758,0.0,0 STARLINK-4507,1 53403U 22097R   23134.91667824 -.00022758  00000-0 -14153-2 0  9993,2 53403  53.2162  67.2112 0001376  91.5292 178.6378 15.08866027  1307,6917.801,95.436,540.618,538.714,0.0
53403.0,STARLINK-4507,PAYLOAD,2023-05-15 08:00:01,15.08822912,0.0001306,53.216,65.3416,86.185,288.5044,0.0009982,0.00015627,0.0,0 STARLINK-4507,1 53403U 22097R   23135.33334491  .00015627  00000-0  99820-3 0  9991,2 53403  53.2160  65.3416 0001306  86.1850 288.5044 15.08822912 42620,6917.933,95.439,540.701,538.894,0.0
53403.0,STARLINK-4507,PAYLOAD,2023-05-15 14:00:01,15.08818814,0.000131,53.2165,64.2179,96.6425,196.7367,0.0021324,0.00033792,0.0,0 STARLINK-4507,1 53403U 22097R   23135.58334491  .00033792  00000-0  21324-2 0  9994,2 53403  53.2165  64.2179 0001310  96.6425 196.7367 15.08818814  1302,6917.945,95.439,540.716,538.904,0.0
53403.0,STARLINK-4507,PAYLOAD,2023-05-15 22:00:00,15.08870413,0.0001328,53.2166,62.7219,96.6618,208.2885,-0.002758,-0.0004395,0.0,0 STARLINK-4507,1 53403U 22097R   23135.91667824 -.00043950  00000-0 -27580-2 0  9999,2 53403  53.2166  62.7219 0001328  96.6618 208.2885 15.08870413  1301,6917.787,95.436,540.571,538.734,0.0
53403.0,STARLINK-4507,PAYLOAD,2023-05-16 08:00:01,15.08819501,0.00012,53.2166,60.8523,83.8126,325.6439,0.0010704,0.00016779,0.0,0 STARLINK-4507,1 53403U 22097R   23136.33334491  .00016779  00000-0  10704-2 0  9994,2 53403  53.2166  60.8523 0001200  83.8126 325.6439 15.08819501 42775,6917.943,95.439,540.638,538.978,0.0
53403.0,STARLINK-4507,PAYLOAD,2023-05-16 14:00:01,15.08813048,0.0001185,53.2171,59.7287,93.3115,234.8963,0.002461,0.00039067,0.0,0 STARLINK-4507,1 53403U 22097R   23136.58335648  .00039067  00000-0  24610-2 0  9992,2 53403  53.2171  59.7287 0001185  93.3115 234.8963 15.08813048  1308,6917.963,95.439,540.648,539.008,0.0
53403.0,STARLINK-4507,PAYLOAD,2023-05-16 22:00:00,15.0886988,0.0001224,53.2174,58.2329,90.1905,249.5285,-0.0026903,-0.00042884,0.0,0 STARLINK-4507,1 53403U 22097R   23136.91667824 -.00042884  00000-0 -26903-2 0  9993,2 53403  53.2174  58.2329 0001224  90.1905 249.5285 15.08869880  1303,6917.789,95.436,540.501,538.807,0.0
53403.0,STARLINK-4507,PAYLOAD,2023-05-17 04:26:57,15.08845486,0.0001273,53.2181,57.0254,94.7671,265.3466,2.4672e-05,1.05e-06,0.0,0 STARLINK-4507,1 53403U 22097R   23137.18538338  .00000105  00000-0  24672-4 0  9991,2 53403  53.2181  57.0254 0001273  94.7671 265.3466 15.08845486 42903,6917.864,95.437,540.609,538.848,0.0
53403.0,STARLINK-4507,PAYLOAD,2023-05-17 21:56:12,15.08833897,0.0001332,53.2179,53.7539,101.0636,259.0506,1.2804e-05,-8.4e-07,0.0,0 STARLINK-4507,1 53403U 22097R   23137.91403140 -.00000084  00000-0  12804-4 0  9995,2 53403  53.2179  53.7539 0001332 101.0636 259.0506 15.08833897 43503,6917.899,95.438,540.686,538.843,0.0
53403.0,STARLINK-4507,PAYLOAD,2023-05-18 01:06:58,15.08836238,0.000123,53.2179,53.1587,99.8801,260.233,4.4934e-05,4.27e-06,0.0,0 STARLINK-4507,1 53403U 22097R   23138.04650907  .00000427  00000-0  44934-4 0  9994,2 53403  53.2179  53.1587 0001230  99.8801 260.2330 15.08836238 43034,6917.892,95.438,540.608,538.906,0.0
53403.0,STARLINK-4507,PAYLOAD,2023-05-19 16:51:37,15.08834102,0.0001231,53.2187,45.7274,84.1223,275.991,5.2306e-05,5.45e-06,0.0,0 STARLINK-4507,1 53403U 22097R   23139.70251342  .00000545  00000-0  52306-4 0  9991,2 53403  53.2187  45.7274 0001231  84.1223 275.9910 15.08834102 43281,6917.898,95.438,540.615,538.912,0.0
